KUZGTU 1 (RS47S)        
1 57217U 23091AV  26200.14168794  .00006376  00000+0  21845-3 0  9991
2 57217  97.5042 264.9598 0009659 351.8433   8.2648 15.30521224169267
SONATE-2                
1 59112U 24043Q   26200.14799562  .00026890  00000+0  32045-3 0  9995
2 59112  97.5567 352.5698 0006685  93.9981 266.2040 15.61042420132877
MESAT1                  
1 60209U 24125G   26200.13975240  .00043692  00000+0  41343-3 0  9993
2 60209  97.2237  58.4287 0010776 100.3413 259.9063 15.66787156114569
OOV-CUBE (TUBSAT-30)    
1 60240U 24128F   26200.25910843  .00000930  00000+0  83634-4 0  9990
2 60240  61.9942 113.7300 0040595 140.9003 219.5034 15.02883153110934
COLIBRI-S (RS67S)       
1 61746U 24199M   26200.24566920  .00012743  00000+0  23712-3 0  9997
2 61746  97.2938  74.4136 0009404 148.7419 211.4393 15.48957684142377
HORS 3 (RS81S)          
1 61753U 24199U   26200.24258786  .00021949  00000+0  30373-3 0  9992
2 61753  97.2922  76.7655 0007582 143.6338 216.5434 15.57100010142542
HORS 4 (RS82S)          
1 61754U 24199V   26200.28998330  .00033750  00000+0  37694-3 0  9999
2 61754  97.2863  78.2425 0007375 137.0862 223.0973 15.62674454142655
SIT-2086                
1 61764U 24199AF  26200.25979145  .00023652  00000+0  35050-3 0  9994
2 61764  97.2880  77.1480 0008530 132.6082 227.5893 15.55213432139410
HYPERVIEW 1G (RS66S)    
1 61772U 24199AP  26200.27907550  .00180490  00000+0  69729-3 0  9990
2 61772  97.2780  81.8594 0008280 140.1722 220.0158 15.86750411139748
ALTAIR (RS65S)          
1 61779U 24199AW  26200.26699882  .00005921  00000+0  16253-3 0  9991
2 61779  97.2985  69.4117 0012488 181.6577 178.4628 15.37558170142047
ASRTU-1 (AO-123)        
1 61781U 24199AY  26200.28436913  .00003886  00000+0  11256-3 0  9996
2 61781  97.2956  68.6681 0013456 185.5275 174.5823 15.36087755138852
SAMSAT-IONOSPHERE (RS7*)
1 61784U 24199BB  26200.27971253  .00029106  00000+0  35496-3 0  9994
2 61784  97.2886  76.9805 0009634 147.4560 212.7293 15.60387985142568
RTU MIREA 1 (RS51S)     
1 61785U 24199BC  26200.28917220  .00040610  00000+0  41922-3 0  9994
2 61785  97.2872  78.0055 0009697 142.9952 217.1978 15.64628150139480
TEVEL2-4                
1 63213U 25052D   26200.18637961  .00010214  00000+0  29689-3 0  9994
2 63213  97.3854  96.6487 0003213  43.9906 316.1593 15.35651855 75029
TEVEL2-5                
1 63214U 25052E   26200.21063975  .00009679  00000+0  28317-3 0  9997
2 63214  97.3852  96.6112 0003259  45.9903 314.1608 15.35462731 75020
TEVEL2-6                
1 63215U 25052F   26200.15853610  .00009478  00000+0  27766-3 0  9998
2 63215  97.3857  96.5439 0003317  47.9788 312.1737 15.35425857 75013
TEVEL2-1                
1 63217U 25052H   26200.19909759  .00009436  00000+0  28147-3 0  9998
2 63217  97.3829  96.1698 0003963  51.7544 308.4055 15.34854302 75007
TEVEL2-3                
1 63218U 25052J   26200.19249340  .00009709  00000+0  28896-3 0  9996
2 63218  97.3837  96.1897 0003706  53.9420 306.2166 15.34917845 75001
TEVEL2-2                
1 63219U 25052K   26200.13400157  .00009991  00000+0  29777-3 0  9998
2 63219  97.3831  96.1077 0004007  51.8515 308.3088 15.34864638 74997
OTP-2                   
1 63235U 25052AB  26200.19896580  .00003386  00000+0  14109-3 0  9996
2 63235  97.3824  92.1533 0007985  59.9973 300.2056 15.24366061 74740
TEVEL2-9                
1 63237U 25052AD  26200.21882993  .00008721  00000+0  27749-3 0  9996
2 63237  97.3893  95.4966 0007321  45.4826 314.7014 15.32806992 74931
TEVEL2-7                
1 63238U 25052AE  26200.13555194  .00008905  00000+0  28610-3 0  9990
2 63238  97.3894  95.3152 0007452  46.0074 314.1782 15.32487513 74914
TEVEL2-8                
1 63239U 25052AF  26200.20940773  .00008420  00000+0  27078-3 0  9999
2 63239  97.3897  95.3655 0007477  46.6510 313.5354 15.32473641 74920
INNOSAT 16 (RS92S7)     
1 64878U 25155C   26200.27191857  .00003042  00000+0  12184-3 0  9998
2 64878  97.4589 167.3087 0012390  76.2818 283.9799 15.25763831 85568
GEOSCAN 6 (RS92S6)      
1 64879U 25155D   26200.21904099  .00005677  00000+0  19369-3 0  9991
2 64879  97.4579 168.9119 0009823  70.8115 289.4189 15.30700671 85662
GEOSCAN 1 (RS92S1)      
1 64880U 25155E   26200.27373134  .00006082  00000+0  20322-3 0  9991
2 64880  97.4576 169.1441 0009738  70.9217 289.3078 15.31352675 85687
239ALFEROV (RS61S)      
1 64881U 25155F   26200.26068003  .00008145  00000+0  25177-3 0  9992
2 64881  97.4575 169.8048 0009462  70.9336 289.2931 15.33738819 85725
GEOSCAN 2 (RS92S2)      
1 64890U 25155Q   26200.19658622  .00006004  00000+0  19911-3 0  9997
2 64890  97.4574 169.2313 0008839  61.4397 298.7733 15.31609276 85684
GEOSCAN 5 (RS92S5)      
1 64891U 25155R   26200.24319186  .00007755  00000+0  23764-3 0  9998
2 64891  97.4567 169.9366 0008498  75.8913 284.3274 15.34042136 85732
GEOSCAN 4 (RS92S4)      
1 64892U 25155S   26200.22400984  .00008024  00000+0  24449-3 0  9995
2 64892  97.4573 169.9754 0008403  76.1901 284.0276 15.34212198 85734
