OBJECT_NAME,OBJECT_ID,EPOCH,MEAN_MOTION,ECCENTRICITY,INCLINATION,RA_OF_ASC_NODE,ARG_OF_PERICENTER,MEAN_ANOMALY,EPHEMERIS_TYPE,CLASSIFICATION_TYPE,NORAD_CAT_ID,ELEMENT_SET_NO,REV_AT_EPOCH,BSTAR,MEAN_MOTION_DOT,MEAN_MOTION_DDOT
KUZGTU 1 (RS47S),2023-091AV,2026-07-19T03:24:01.838016,15.30521224,.00096592,97.5042,264.9598,351.8433,8.2648,0,U,57217,999,16926,.21844877E-3,.6376E-4,0
SONATE-2,2024-043Q,2026-07-19T03:33:06.821568,15.61042420,.00066859,97.5567,352.5698,93.9981,266.2040,0,U,59112,999,13287,.32044613E-3,.2689E-3,0
MESAT1,2024-125G,2026-07-19T03:21:14.607360,15.66787156,.0010776,97.2237,58.4287,100.3413,259.9063,0,U,60209,999,11456,.41343067E-3,.43692E-3,0
OOV-CUBE (TUBSAT-30),2024-128F,2026-07-19T06:13:06.968352,15.02883153,.00405956,61.9942,113.7300,140.9003,219.5034,0,U,60240,999,11093,.83634225E-4,.93E-5,0
COLIBRI-S (RS67S),2024-199M,2026-07-19T05:53:45.818880,15.48957684,.00094043,97.2938,74.4136,148.7419,211.4393,0,U,61746,999,14237,.2371179E-3,.12743E-3,0
HORS 3 (RS81S),2024-199U,2026-07-19T05:49:19.591104,15.57100010,.00075827,97.2922,76.7655,143.6338,216.5434,0,U,61753,999,14254,.30372514E-3,.21949E-3,0
HORS 4 (RS82S),2024-199V,2026-07-19T06:57:34.557120,15.62674454,.00073757,97.2863,78.2425,137.0862,223.0973,0,U,61754,999,14265,.37694169E-3,.3375E-3,0
SIT-2086,2024-199AF,2026-07-19T06:14:05.981280,15.55213432,.00085302,97.2880,77.1480,132.6082,227.5893,0,U,61764,999,13941,.35050486E-3,.23652E-3,0
HYPERVIEW 1G (RS66S),2024-199AP,2026-07-19T06:41:52.123200,15.86750411,.00082802,97.2780,81.8594,140.1722,220.0158,0,U,61772,999,13974,.69729453E-3,.18049E-2,0
ALTAIR (RS65S),2024-199AW,2026-07-19T06:24:28.698048,15.37558170,.00124882,97.2985,69.4117,181.6577,178.4628,0,U,61779,999,14204,.16252712E-3,.5921E-4,0
ASRTU-1 (AO-123),2024-199AY,2026-07-19T06:49:29.492832,15.36087755,.00134563,97.2956,68.6681,185.5275,174.5823,0,U,61781,999,13885,.11256441E-3,.3886E-4,0
SAMSAT-IONOSPHERE (RS75S),2024-199BB,2026-07-19T06:42:47.162592,15.60387985,.00096348,97.2886,76.9805,147.4560,212.7293,0,U,61784,999,14256,.35495913E-3,.29106E-3,0
RTU MIREA 1 (RS51S),2024-199BC,2026-07-19T06:56:24.478080,15.64628150,.00096974,97.2872,78.0055,142.9952,217.1978,0,U,61785,999,13948,.41922014E-3,.4061E-3,0
TEVEL2-4,2025-052D,2026-07-19T04:28:23.198304,15.35651855,.00032139,97.3854,96.6487,43.9906,316.1593,0,U,63213,999,7502,.29688819E-3,.10214E-3,0
TEVEL2-5,2025-052E,2026-07-19T05:03:19.274400,15.35462731,.00032598,97.3852,96.6112,45.9903,314.1608,0,U,63214,999,7502,.28316622E-3,.9679E-4,0
TEVEL2-6,2025-052F,2026-07-19T03:48:17.519040,15.35425857,.00033179,97.3857,96.5439,47.9788,312.1737,0,U,63215,999,7501,.27765753E-3,.9478E-4,0
TEVEL2-1,2025-052H,2026-07-19T04:46:42.031776,15.34854302,.00039635,97.3829,96.1698,51.7544,308.4055,0,U,63217,999,7500,.28146936E-3,.9436E-4,0
TEVEL2-3,2025-052J,2026-07-19T04:37:11.429760,15.34917845,.0003706,97.3837,96.1897,53.9420,306.2166,0,U,63218,999,7500,.28896094E-3,.9709E-4,0
TEVEL2-2,2025-052K,2026-07-19T03:12:57.735648,15.34864638,.00040072,97.3831,96.1077,51.8515,308.3088,0,U,63219,999,7499,.29777309E-3,.9991E-4,0
OTP-2,2025-052AB,2026-07-19T04:46:30.645120,15.24366061,.00079857,97.3824,92.1533,59.9973,300.2056,0,U,63235,999,7474,.14108899E-3,.3386E-4,0
TEVEL2-9,2025-052AD,2026-07-19T05:15:06.905952,15.32806992,.00073214,97.3893,95.4966,45.4826,314.7014,0,U,63237,999,7493,.27748568E-3,.8721E-4,0
TEVEL2-7,2025-052AE,2026-07-19T03:15:11.687616,15.32487513,.00074527,97.3894,95.3152,46.0074,314.1782,0,U,63238,999,7491,.28610385E-3,.8905E-4,0
TEVEL2-8,2025-052AF,2026-07-19T05:01:32.827872,15.32473641,.00074778,97.3897,95.3655,46.6510,313.5354,0,U,63239,999,7492,.27077917E-3,.842E-4,0
INNOSAT 16 (RS92S7),2025-155C,2026-07-19T06:31:33.764448,15.25763831,.00123902,97.4589,167.3087,76.2818,283.9799,0,U,64878,999,8556,.1218399E-3,.3042E-4,0
GEOSCAN 6 (RS92S6),2025-155D,2026-07-19T05:15:25.141536,15.30700671,.00098239,97.4579,168.9119,70.8115,289.4189,0,U,64879,999,8566,.19368897E-3,.5677E-4,0
GEOSCAN 1 (RS92S1),2025-155E,2026-07-19T06:34:10.387776,15.31352675,.00097385,97.4576,169.1441,70.9217,289.3078,0,U,64880,999,8568,.20321611E-3,.6082E-4,0
239ALFEROV (RS61S),2025-155F,2026-07-19T06:15:22.754592,15.33738819,.00094627,97.4575,169.8048,70.9336,289.2931,0,U,64881,999,8572,.25176743E-3,.8145E-4,0
GEOSCAN 2 (RS92S2),2025-155Q,2026-07-19T04:43:05.049408,15.31609276,.00088394,97.4574,169.2313,61.4397,298.7733,0,U,64890,999,8568,.19910726E-3,.6004E-4,0
GEOSCAN 5 (RS92S5),2025-155R,2026-07-19T05:50:11.776704,15.34042136,.00084985,97.4567,169.9366,75.8913,284.3274,0,U,64891,999,8573,.23764432E-3,.7755E-4,0
GEOSCAN 4 (RS92S4),2025-155S,2026-07-19T05:22:34.450176,15.34212198,.00084033,97.4573,169.9754,76.1901,284.0276,0,U,64892,999,8573,.24449055E-3,.8024E-4,0
